OBJECT_NAME,OBJECT_ID,EPOCH,MEAN_MOTION,ECCENTRICITY,INCLINATION,RA_OF_ASC_NODE,ARG_OF_PERICENTER,MEAN_ANOMALY,EPHEMERIS_TYPE,CLASSIFICATION_TYPE,NORAD_CAT_ID,ELEMENT_SET_NO,REV_AT_EPOCH,BSTAR,MEAN_MOTION_DOT,MEAN_MOTION_DDOT
GEOSCAN 3 (RS92S3),2025-155T,2026-06-06T13:38:53.170944,15.35038839,.0005142,97.4537,127.3252,195.9768,164.1313,0,U,64893,999,7922,.6493535E-3,.2204E-3,0
INNOSAT 3 (RS92S0),2025-155U,2026-06-06T14:46:13.811232,15.43080507,.00045264,97.4487,128.8648,179.3109,180.8145,0,U,64894,999,7933,.10049644E-2,.44531E-3,0
KNACKSAT-2,1998-067XZ,2026-06-06T06:20:58.495488,15.58973490,.00105336,51.6302,349.3788,167.5745,192.5509,0,U,67683,999,1857,.81732863E-3,.64955E-3,0
