GEOSCAN 3 (RS92S3)      
1 64893U 25155T   26157.56867096  .00022040  00000+0  64935-3 0  9993
2 64893  97.4537 127.3252 0005142 195.9768 164.1313 15.35038839 79220
INNOSAT 3 (RS92S0)      
1 64894U 25155U   26157.61543763  .00044531  00000+0  10050-2 0  9999
2 64894  97.4487 128.8648 0004526 179.3109 180.8145 15.43080507 79338
KNACKSAT-2              
1 67683U 98067XZ  26157.26456592  .00064955  00000+0  81733-3 0  9993
2 67683  51.6302 349.3788 0010533 167.5745 192.5509 15.58973490 18571
